{
    "links": {
        "self": "http://www.neowsapp.com/rest/v1/neo/54017536?api_key=iIulBulltgU6a56xZRHN4H3l9WmuAYTsLGpBGhQ2"
    },
    "id": "54017536",
    "neo_reference_id": "54017536",
    "name": "(2020 LX1)",
    "designation": "2020 LX1",
    "nasa_jpl_url": "http://ssd.jpl.nasa.gov/sbdb.cgi?sstr=54017536",
    "absolute_magnitude_h": 22.132,
    "estimated_diameter": {
        "kilometers": {
            "estimated_diameter_min": 0.0995760688,
            "estimated_diameter_max": 0.2226588588
        },
        "meters": {
            "estimated_diameter_min": 99.5760687999,
            "estimated_diameter_max": 222.6588587687
        },
        "miles": {
            "estimated_diameter_min": 0.0618736814,
            "estimated_diameter_max": 0.1383537577
        },
        "feet": {
            "estimated_diameter_min": 326.6931495613,
            "estimated_diameter_max": 730.5080902026
        }
    },
    "is_potentially_hazardous_asteroid": false,
    "close_approach_data": [
        {
            "close_approach_date": "2020-07-07",
            "close_approach_date_full": "2020-Jul-07 19:16",
            "epoch_date_close_approach": 1594149360000,
            "relative_velocity": {
                "kilometers_per_second": "14.4663451102",
                "kilometers_per_hour": "52078.8423968874",
                "miles_per_hour": "32359.7673771104"
            },
            "miss_distance": {
                "astronomical": "0.1147911844",
                "lunar": "44.6537707316",
                "kilometers": "17172516.681017228",
                "miles": "10670507.0675966264"
            },
            "orbiting_body": "Earth"
        }
    ],
    "orbital_data": {
        "orbit_id": "3",
        "orbit_determination_date": "2020-07-20 06:30:35",
        "first_observation_date": "2020-06-15",
        "last_observation_date": "2020-07-19",
        "data_arc_in_days": 34,
        "observations_used": 24,
        "orbit_uncertainty": "7",
        "minimum_orbit_intersection": ".0890103",
        "jupiter_tisserand_invariant": "3.249",
        "epoch_osculation": "2459000.5",
        "eccentricity": ".6045154927695789",
        "semi_major_axis": "2.379437806426873",
        "inclination": "9.500421435828081",
        "ascending_node_longitude": "84.35164550357517",
        "orbital_period": "1340.633179062463",
        "perihelion_distance": ".9410307883601657",
        "perihelion_argument": "252.4239123674508",
        "aphelion_distance": "3.81784482449358",
        "perihelion_time": "2459075.568449754444",
        "mean_anomaly": "339.8418819303735",
        "mean_motion": ".268529830249134",
        "equinox": "J2000",
        "orbit_class": {
            "orbit_class_type": "APO",
            "orbit_class_description": "Near-Earth asteroid orbits which cross the Earth’s orbit similar to that of 1862 Apollo",
            "orbit_class_range": "a (semi-major axis) > 1.0 AU; q (perihelion) < 1.017 AU"
        }
    },
    "is_sentry_object": false
}